[
    {
        "Altitude(m)": 555978.2545960231,
        "Argument of Periapsis(deg)": 0.019868973332140504,
        "Eccentricity": 0.0,
        "Inclination(deg)": 53.0,
        "Latitude(deg)": 35.223662042681404,
        "Longitude(deg)": 70.67323337949614,
        "Mean Anomaly(deg)": 133.91117860273278,
        "RAAN(deg)": 24.970430105584054,
        "Satellite Name": "Starlink Shell 1 116",
        "Satellite Number": 116,
        "Semi-Major Axis(m)": 6931778.249405717,
        "Time(s)": 570
    },
    {
        "Altitude(m)": 555896.5817752702,
        "Argument of Periapsis(deg)": 0.02021755181165174,
        "Eccentricity": 0.0,
        "Inclination(deg)": 53.0,
        "Latitude(deg)": 34.79601826564737,
        "Longitude(deg)": 71.19224396352666,
        "Mean Anomaly(deg)": 134.53800980628944,
        "RAAN(deg)": 24.969911335506577,
        "Satellite Name": "Starlink Shell 1 116",
        "Satellite Number": 116,
        "Semi-Major Axis(m)": 6931778.249405717,
        "Time(s)": 580
    },
    {
        "Altitude(m)": 555815.3732763233,
        "Argument of Periapsis(deg)": 0.020566130291162974,
        "Eccentricity": 0.0,
        "Inclination(deg)": 53.0,
        "Latitude(deg)": 34.36579121649434,
        "Longitude(deg)": 71.70548707971251,
        "Mean Anomaly(deg)": 135.16484100984619,
        "RAAN(deg)": 24.969392565429107,
        "Satellite Name": "Starlink Shell 1 116",
        "Satellite Number": 116,
        "Semi-Major Axis(m)": 6931778.249405717,
        "Time(s)": 590
    },
    {
        "Altitude(m)": 555734.6847838474,
        "Argument of Periapsis(deg)": 0.020914708770674213,
        "Eccentricity": 0.0,
        "Inclination(deg)": 53.0,
        "Latitude(deg)": 33.93304688203634,
        "Longitude(deg)": 72.21307947494242,
        "Mean Anomaly(deg)": 135.7916722134029,
        "RAAN(deg)": 24.96887379535163,
        "Satellite Name": "Starlink Shell 1 116",
        "Satellite Number": 116,
        "Semi-Major Axis(m)": 6931778.249405717,
        "Time(s)": 600
    },
    {
        "Altitude(m)": 555654.5719250028,
        "Argument of Periapsis(deg)": 0.021263287250185448,
        "Eccentricity": 0.0,
        "Inclination(deg)": 53.0,
        "Latitude(deg)": 33.49784975929395,
        "Longitude(deg)": 72.71513700614955,
        "Mean Anomaly(deg)": 136.4185034169596,
        "RAAN(deg)": 24.96835502527416,
        "Satellite Name": "Starlink Shell 1 116",
        "Satellite Number": 116,
        "Semi-Major Axis(m)": 6931778.249405717,
        "Time(s)": 610
    },
    {
        "Altitude(m)": 555575.0902405988,
        "Argument of Periapsis(deg)": 0.021611865729696686,
        "Eccentricity": 0.0,
        "Inclination(deg)": 53.0,
        "Latitude(deg)": 33.06026288804907,
        "Longitude(deg)": 73.21177507476601,
        "Mean Anomaly(deg)": 137.04533462051634,
        "RAAN(deg)": 24.967836255196683,
        "Satellite Name": "Starlink Shell 1 116",
        "Satellite Number": 116,
        "Semi-Major Axis(m)": 6931778.249405717,
        "Time(s)": 620
    },
    {
        "Altitude(m)": 555496.2951562267,
        "Argument of Periapsis(deg)": 0.02196044420920792,
        "Eccentricity": 0.0,
        "Inclination(deg)": 53.0,
        "Latitude(deg)": 32.620347883627936,
        "Longitude(deg)": 73.7031073879012,
        "Mean Anomaly(deg)": 137.67216582407303,
        "RAAN(deg)": 24.967317485119214,
        "Satellite Name": "Starlink Shell 1 116",
        "Satellite Number": 116,
        "Semi-Major Axis(m)": 6931778.249405717,
        "Time(s)": 630
    },
    {
        "Altitude(m)": 555418.2419534652,
        "Argument of Periapsis(deg)": 0.02230902268871916,
        "Eccentricity": 0.0,
        "Inclination(deg)": 53.0,
        "Latitude(deg)": 32.17816496982029,
        "Longitude(deg)": 74.18924724819098,
        "Mean Anomaly(deg)": 138.29899702762978,
        "RAAN(deg)": 24.96679871504174,
        "Satellite Name": "Starlink Shell 1 116",
        "Satellite Number": 116,
        "Semi-Major Axis(m)": 6931778.249405717,
        "Time(s)": 640
    },
    {
        "Altitude(m)": 555340.9857410275,
        "Argument of Periapsis(deg)": 0.022657601168230398,
        "Eccentricity": 0.0,
        "Inclination(deg)": 53.0,
        "Latitude(deg)": 31.733773011844892,
        "Longitude(deg)": 74.67030632893656,
        "Mean Anomaly(deg)": 138.9258282311865,
        "RAAN(deg)": 24.966279944964267,
        "Satellite Name": "Starlink Shell 1 116",
        "Satellite Number": 116,
        "Semi-Major Axis(m)": 6931778.249405717,
        "Time(s)": 650
    },
    {
        "Altitude(m)": 555264.5814260156,
        "Argument of Periapsis(deg)": 0.023006179647741636,
        "Eccentricity": 0.0,
        "Inclination(deg)": 53.0,
        "Latitude(deg)": 31.28722954928663,
        "Longitude(deg)": 75.14639513652138,
        "Mean Anomaly(deg)": 139.55265943474316,
        "RAAN(deg)": 24.965761174886797,
        "Satellite Name": "Starlink Shell 1 116",
        "Satellite Number": 116,
        "Semi-Major Axis(m)": 6931778.249405717,
        "Time(s)": 660
    },
    {
        "Altitude(m)": 555189.083685198,
        "Argument of Periapsis(deg)": 0.023354758127252868,
        "Eccentricity": 0.0,
        "Inclination(deg)": 53.0,
        "Latitude(deg)": 30.838590828933043,
        "Longitude(deg)": 75.61762347871017,
        "Mean Anomaly(deg)": 140.1794906382999,
        "RAAN(deg)": 24.96524240480932,
        "Satellite Name": "Starlink Shell 1 116",
        "Satellite Number": 116,
        "Semi-Major Axis(m)": 6931778.249405717,
        "Time(s)": 670
    },
    {
        "Altitude(m)": 555114.5469363515,
        "Argument of Periapsis(deg)": 0.023703336606764106,
        "Eccentricity": 0.0,
        "Inclination(deg)": 53.0,
        "Latitude(deg)": 30.387911837447447,
        "Longitude(deg)": 76.0840994255526,
        "Mean Anomaly(deg)": 140.8063218418566,
        "RAAN(deg)": 24.96472363473185,
        "Satellite Name": "Starlink Shell 1 116",
        "Satellite Number": 116,
        "Semi-Major Axis(m)": 6931778.249405717,
        "Time(s)": 680
    },
    {
        "Altitude(m)": 555041.0253097053,
        "Argument of Periapsis(deg)": 0.024051915086275345,
        "Eccentricity": 0.0,
        "Inclination(deg)": 53.0,
        "Latitude(deg)": 29.935246333822555,
        "Longitude(deg)": 76.54592978825954,
        "Mean Anomaly(deg)": 141.43315304541335,
        "RAAN(deg)": 24.96420486465438,
        "Satellite Name": "Starlink Shell 1 116",
        "Satellite Number": 116,
        "Semi-Major Axis(m)": 6931778.249405717,
        "Time(s)": 690
    },
    {
        "Altitude(m)": 554968.572619463,
        "Argument of Periapsis(deg)": 0.024400493565786583,
        "Eccentricity": 0.0,
        "Inclination(deg)": 53.0,
        "Latitude(deg)": 29.480646881565274,
        "Longitude(deg)": 77.0032206028132,
        "Mean Anomaly(deg)": 142.05998424897007,
        "RAAN(deg)": 24.963686094576904,
        "Satellite Name": "Starlink Shell 1 116",
        "Satellite Number": 116,
        "Semi-Major Axis(m)": 6931778.249405717,
        "Time(s)": 700
    },
    {
        "Altitude(m)": 554897.2423354617,
        "Argument of Periapsis(deg)": 0.024749072045297815,
        "Eccentricity": 0.0,
        "Inclination(deg)": 53.0,
        "Latitude(deg)": 29.024164880565547,
        "Longitude(deg)": 77.45607610509333,
        "Mean Anomaly(deg)": 142.68681545252676,
        "RAAN(deg)": 24.96316732449943,
        "Satellite Name": "Starlink Shell 1 116",
        "Satellite Number": 116,
        "Semi-Major Axis(m)": 6931778.249405717,
        "Time(s)": 710
    },
    {
        "Altitude(m)": 554827.0875549152,
        "Argument of Periapsis(deg)": 0.025097650524809053,
        "Eccentricity": 0.0,
        "Inclination(deg)": 53.0,
        "Latitude(deg)": 28.565850598613167,
        "Longitude(deg)": 77.90459922294521,
        "Mean Anomaly(deg)": 143.31364665608348,
        "RAAN(deg)": 24.96264855442196,
        "Satellite Name": "Starlink Shell 1 116",
        "Satellite Number": 116,
        "Semi-Major Axis(m)": 6931778.249405717,
        "Time(s)": 720
    },
    {
        "Altitude(m)": 554758.1609743346,
        "Argument of Periapsis(deg)": 0.02544622900432029,
        "Eccentricity": 0.0,
        "Inclination(deg)": 53.0,
        "Latitude(deg)": 28.105753202527456,
        "Longitude(deg)": 78.34889207200621,
        "Mean Anomaly(deg)": 143.9404778596402,
        "RAAN(deg)": 24.962129784344487,
        "Satellite Name": "Starlink Shell 1 116",
        "Satellite Number": 116,
        "Semi-Major Axis(m)": 6931778.249405717,
        "Time(s)": 730
    },
    {
        "Altitude(m)": 554690.5148616027,
        "Argument of Periapsis(deg)": 0.02579480748383153,
        "Eccentricity": 0.0,
        "Inclination(deg)": 53.0,
        "Latitude(deg)": 27.643920788868563,
        "Longitude(deg)": 78.78905494212938,
        "Mean Anomaly(deg)": 144.56730906319692,
        "RAAN(deg)": 24.961611014267014,
        "Satellite Name": "Starlink Shell 1 116",
        "Satellite Number": 116,
        "Semi-Major Axis(m)": 6931778.249405717,
        "Time(s)": 740
    },
    {
        "Altitude(m)": 554624.2010281946,
        "Argument of Periapsis(deg)": 0.026143385963342765,
        "Eccentricity": 0.0,
        "Inclination(deg)": 53.0,
        "Latitude(deg)": 27.18040041420722,
        "Longitude(deg)": 79.22518679988114,
        "Mean Anomaly(deg)": 145.19414026675364,
        "RAAN(deg)": 24.961092244189537,
        "Satellite Name": "Starlink Shell 1 116",
        "Satellite Number": 116,
        "Semi-Major Axis(m)": 6931778.249405717,
        "Time(s)": 750
    }
]